{
  "links" : {
    "next" : "https://api.nasa.gov/neo/rest/v1/feed?start_date=2015-01-23&end_date=2015-01-23&detailed=true&api_key=t0TVs3DtDT2H8Oy2Zy8m2eVrNsAVKAexjcZXUckd",
    "prev" : "https://api.nasa.gov/neo/rest/v1/feed?start_date=2015-01-21&end_date=2015-01-21&detailed=true&api_key=t0TVs3DtDT2H8Oy2Zy8m2eVrNsAVKAexjcZXUckd",
    "self" : "https://api.nasa.gov/neo/rest/v1/feed?start_date=2015-01-22&end_date=2015-01-22&detailed=true&api_key=t0TVs3DtDT2H8Oy2Zy8m2eVrNsAVKAexjcZXUckd"
  },
  "element_count" : 8,
  "near_earth_objects" : {
    "2015-01-22" : [ {
      "links" : {
        "self" : "https://api.nasa.gov/neo/rest/v1/neo/3755345?api_key=t0TVs3DtDT2H8Oy2Zy8m2eVrNsAVKAexjcZXUckd"
      },
      "neo_reference_id" : "3755345",
      "name" : "(2016 NG33)",
      "nasa_jpl_url" : "http://ssd.jpl.nasa.gov/sbdb.cgi?sstr=3755345",
      "absolute_magnitude_h" : 21.5,
      "estimated_diameter" : {
        "kilometers" : {
          "estimated_diameter_min" : 0.1332155667,
          "estimated_diameter_max" : 0.2978790628
        },
        "meters" : {
          "estimated_diameter_min" : 133.2155666981,
          "estimated_diameter_max" : 297.8790627982
        },
        "miles" : {
          "estimated_diameter_min" : 0.0827762899,
          "estimated_diameter_max" : 0.1850934111
        },
        "feet" : {
          "estimated_diameter_min" : 437.0589598459,
          "estimated_diameter_max" : 977.2935443908
        }
      },
      "is_potentially_hazardous_asteroid" : true,
      "close_approach_data" : [ {
        "close_approach_date" : "2015-01-22",
        "epoch_date_close_approach" : 1421913600000,
        "relative_velocity" : {
          "kilometers_per_second" : "19.7398859325",
          "kilometers_per_hour" : "71063.5893571411",
          "miles_per_hour" : "44156.1508424969"
        },
        "miss_distance" : {
          "astronomical" : "0.3136419657",
          "lunar" : "122.0067214966",
          "kilometers" : "46920172",
          "miles" : "29154842"
        },
        "orbiting_body" : "Earth"
      } ],
      "orbital_data" : {
        "orbit_id" : "21",
        "orbit_determination_date" : "2017-07-22 06:20:09",
        "orbit_uncertainty" : "2",
        "minimum_orbit_intersection" : ".0266238",
        "jupiter_tisserand_invariant" : "5.786",
        "epoch_osculation" : "2458000.5",
        "eccentricity" : ".09500120835969413",
        "semi_major_axis" : "1.037463616574977",
        "inclination" : "29.92221234429334",
        "ascending_node_longitude" : "136.7628698018643",
        "orbital_period" : "385.9737234794006",
        "perihelion_distance" : ".9389033193711358",
        "perihelion_argument" : "39.29024990295736",
        "aphelion_distance" : "1.136023913778818",
        "perihelion_time" : "2457847.970954788954",
        "mean_anomaly" : "142.2647525872501",
        "mean_motion" : ".9327059799686419",
        "equinox" : "J2000"
      }
    }, {
      "links" : {
        "self" : "https://api.nasa.gov/neo/rest/v1/neo/3711168?api_key=t0TVs3DtDT2H8Oy2Zy8m2eVrNsAVKAexjcZXUckd"
      },
      "neo_reference_id" : "3711168",
      "name" : "(2015 DA54)",
      "nasa_jpl_url" : "http://ssd.jpl.nasa.gov/sbdb.cgi?sstr=3711168",
      "absolute_magnitude_h" : 20.8,
      "estimated_diameter" : {
        "kilometers" : {
          "estimated_diameter_min" : 0.1838886721,
          "estimated_diameter_max" : 0.411187571
        },
        "meters" : {
          "estimated_diameter_min" : 183.8886720703,
          "estimated_diameter_max" : 411.1875710413
        },
        "miles" : {
          "estimated_diameter_min" : 0.1142630881,
          "estimated_diameter_max" : 0.2555000322
        },
        "feet" : {
          "estimated_diameter_min" : 603.309310875,
          "estimated_diameter_max" : 1349.040630575
        }
      },
      "is_potentially_hazardous_asteroid" : false,
      "close_approach_data" : [ {
        "close_approach_date" : "2015-01-22",
        "epoch_date_close_approach" : 1421913600000,
        "relative_velocity" : {
          "kilometers_per_second" : "23.4268381918",
          "kilometers_per_hour" : "84336.6174904127",
          "miles_per_hour" : "52403.4943511956"
        },
        "miss_distance" : {
          "astronomical" : "0.0695541025",
          "lunar" : "27.0565471649",
          "kilometers" : "10405146",
          "miles" : "6465458"
        },
        "orbiting_body" : "Earth"
      } ],
      "orbital_data" : {
        "orbit_id" : "15",
        "orbit_determination_date" : "2017-08-10 06:18:52",
        "orbit_uncertainty" : "5",
        "minimum_orbit_intersection" : ".0587049",
        "jupiter_tisserand_invariant" : "2.867",
        "epoch_osculation" : "2458000.5",
        "eccentricity" : ".7815471906352108",
        "semi_major_axis" : "2.611562702209497",
        "inclination" : "8.246716128244564",
        "ascending_node_longitude" : "148.0126442507677",
        "orbital_period" : "1541.519820237548",
        "perihelion_distance" : ".570503209129965",
        "perihelion_argument" : "245.6685376248854",
        "aphelion_distance" : "4.65262219528903",
        "perihelion_time" : "2458545.534148505071",
        "mean_anomaly" : "232.7150368838014",
        "mean_motion" : ".233535758200322",
        "equinox" : "J2000"
      }
    } ]
  }
}